CALSPHERE 1             
1 00900U 64063C   26094.18424832  .00000918  00000+0  92574-3 0  9998
2 00900  90.2191  70.0346 0026308 151.0518 342.2993 13.76534075 61249
CALSPHERE 2             
1 00902U 64063E   26094.21200363  .00000044  00000+0  52183-4 0  9998
2 00902  90.2310  74.0277 0020653  82.9225 301.5723 13.52894415846268
LCS 1                   
1 01361U 65034C   26094.15498289  .00000009  00000+0  41613-4 0  9993
2 01361  32.1469 352.8037 0013329 220.0691 139.8823  9.89309882202558
TEMPSAT 1               
1 01512U 65065E   26094.30675497  .00000044  00000+0  67845-4 0  9994
2 01512  89.9986 212.5807 0071567  96.1931 317.8738 13.33590729950205
CALSPHERE 4A            
1 01520U 65065H   26094.09286716  .00000135  00000+0  24248-3 0  9991
2 01520  89.8983 123.2263 0068030 313.8990 100.4041 13.36264415952814
OPS 5712 (P/L 160)      
1 02826U 67053A   26094.23999329  .00018258  00000+0  26065-2 0  9990
2 02826  69.9177 219.3917 0002667 221.7555 138.3389 14.76733034 55316
OPS 5712 (P/L 153)      
1 02874U 67053H   26093.93585465  .00000074  00000+0  91270-4 0  9990
2 02874  69.9723 274.4565 0009865 285.7604  74.2413 13.96817293996411
RIGIDSPHERE 2 (LCS 4)   
1 05398U 71067E   26094.28315513  .00001166  00000+0  37273-3 0  9993
2 05398  87.6278 359.3219 0061907 116.8854 243.8691 14.37784591863260
COSMOS 2493 (SKRL-756 1)
1 39490U 13078A   26094.20205636  .00006162  00000+0  47014-3 0  9992
2 39490  82.4140 333.5585 0014084 129.3589 230.8886 15.01774072666852
COSMOS 2494 (SKRL-756 2)
1 39491U 13078B   26094.19854657  .00006042  00000+0  42905-3 0  9995
2 39491  82.4127 323.2592 0017661  96.0194 264.3046 15.04428632667681
