[{"OBJECT_NAME":"CALSPHERE 1","OBJECT_ID":"1964-063C","EPOCH":"2026-04-04T04:25:19.054848","MEAN_MOTION":13.76534075,"ECCENTRICITY":0.00263085,"INCLINATION":90.2191,"RA_OF_ASC_NODE":70.0346,"ARG_OF_PERICENTER":151.0518,"MEAN_ANOMALY":342.2993,"EPHEMERIS_TYPE":0,"CLASSIFICATION_TYPE":"U","NORAD_CAT_ID":900,"ELEMENT_SET_NO":999,"REV_AT_EPOCH":6124,"BSTAR":0.00092573784,"MEAN_MOTION_DOT":9.18e-6,"MEAN_MOTION_DDOT":0},{"OBJECT_NAME":"CALSPHERE 2","OBJECT_ID":"1964-063E","EPOCH":"2026-04-04T05:05:17.113632","MEAN_MOTION":13.52894415,"ECCENTRICITY":0.0020653,"INCLINATION":90.231,"RA_OF_ASC_NODE":74.0277,"ARG_OF_PERICENTER":82.9225,"MEAN_ANOMALY":301.5723,"EPHEMERIS_TYPE":0,"CLASSIFICATION_TYPE":"U","NORAD_CAT_ID":902,"ELEMENT_SET_NO":999,"REV_AT_EPOCH":84626,"BSTAR":5.2182876e-5,"MEAN_MOTION_DOT":4.4e-7,"MEAN_MOTION_DDOT":0},{"OBJECT_NAME":"LCS 1","OBJECT_ID":"1965-034C","EPOCH":"2026-04-04T03:43:10.521696","MEAN_MOTION":9.89309882,"ECCENTRICITY":0.00133294,"INCLINATION":32.1469,"RA_OF_ASC_NODE":352.8037,"ARG_OF_PERICENTER":220.0691,"MEAN_ANOMALY":139.8823,"EPHEMERIS_TYPE":0,"CLASSIFICATION_TYPE":"U","NORAD_CAT_ID":1361,"ELEMENT_SET_NO":999,"REV_AT_EPOCH":20255,"BSTAR":4.1612523e-5,"MEAN_MOTION_DOT":9.0e-8,"MEAN_MOTION_DDOT":0},{"OBJECT_NAME":"TEMPSAT 1","OBJECT_ID":"1965-065E","EPOCH":"2026-04-04T07:21:43.629408","MEAN_MOTION":13.33590729,"ECCENTRICITY":0.00715675,"INCLINATION":89.9986,"RA_OF_ASC_NODE":212.5807,"ARG_OF_PERICENTER":96.1931,"MEAN_ANOMALY":317.8738,"EPHEMERIS_TYPE":0,"CLASSIFICATION_TYPE":"U","NORAD_CAT_ID":1512,"ELEMENT_SET_NO":999,"REV_AT_EPOCH":95020,"BSTAR":6.7844512e-5,"MEAN_MOTION_DOT":4.4e-7,"MEAN_MOTION_DDOT":0},{"OBJECT_NAME":"CALSPHERE 4A","OBJECT_ID":"1965-065H","EPOCH":"2026-04-04T02:13:43.722624","MEAN_MOTION":13.36264415,"ECCENTRICITY":0.00680302,"INCLINATION":89.8983,"RA_OF_ASC_NODE":123.2263,"ARG_OF_PERICENTER":313.899,"MEAN_ANOMALY":100.4041,"EPHEMERIS_TYPE":0,"CLASSIFICATION_TYPE":"U","NORAD_CAT_ID":1520,"ELEMENT_SET_NO":999,"REV_AT_EPOCH":95281,"BSTAR":0.00024248327,"MEAN_MOTION_DOT":1.35e-6,"MEAN_MOTION_DDOT":0},{"OBJECT_NAME":"OPS 5712 (P/L 160)","OBJECT_ID":"1967-053A","EPOCH":"2026-04-04T05:45:35.420256","MEAN_MOTION":14.76733034,"ECCENTRICITY":0.0002667,"INCLINATION":69.9177,"RA_OF_ASC_NODE":219.3917,"ARG_OF_PERICENTER":221.7555,"MEAN_ANOMALY":138.3389,"EPHEMERIS_TYPE":0,"CLASSIFICATION_TYPE":"U","NORAD_CAT_ID":2826,"ELEMENT_SET_NO":999,"REV_AT_EPOCH":5531,"BSTAR":0.0026065388,"MEAN_MOTION_DOT":0.00018258,"MEAN_MOTION_DDOT":0},{"OBJECT_NAME":"OPS 5712 (P/L 153)","OBJECT_ID":"1967-053H","EPOCH":"2026-04-03T22:27:37.841760","MEAN_MOTION":13.96817293,"ECCENTRICITY":0.00098655,"INCLINATION":69.9723,"RA_OF_ASC_NODE":274.4565,"ARG_OF_PERICENTER":285.7604,"MEAN_ANOMALY":74.2413,"EPHEMERIS_TYPE":0,"CLASSIFICATION_TYPE":"U","NORAD_CAT_ID":2874,"ELEMENT_SET_NO":999,"REV_AT_EPOCH":99641,"BSTAR":9.126987e-5,"MEAN_MOTION_DOT":7.4e-7,"MEAN_MOTION_DDOT":0},{"OBJECT_NAME":"RIGIDSPHERE 2 (LCS 4)","OBJECT_ID":"1971-067E","EPOCH":"2026-04-04T06:47:44.603232","MEAN_MOTION":14.37784591,"ECCENTRICITY":0.00619074,"INCLINATION":87.6278,"RA_OF_ASC_NODE":359.3219,"ARG_OF_PERICENTER":116.8854,"MEAN_ANOMALY":243.8691,"EPHEMERIS_TYPE":0,"CLASSIFICATION_TYPE":"U","NORAD_CAT_ID":5398,"ELEMENT_SET_NO":999,"REV_AT_EPOCH":86326,"BSTAR":0.00037273349,"MEAN_MOTION_DOT":1.166e-5,"MEAN_MOTION_DDOT":0},{"OBJECT_NAME":"COSMOS 2493 (SKRL-756 1)","OBJECT_ID":"2013-078A","EPOCH":"2026-04-04T04:50:57.669504","MEAN_MOTION":15.01774072,"ECCENTRICITY":0.00140848,"INCLINATION":82.414,"RA_OF_ASC_NODE":333.5585,"ARG_OF_PERICENTER":129.3589,"MEAN_ANOMALY":230.8886,"EPHEMERIS_TYPE":0,"CLASSIFICATION_TYPE":"U","NORAD_CAT_ID":39490,"ELEMENT_SET_NO":999,"REV_AT_EPOCH":66685,"BSTAR":0.00047013653,"MEAN_MOTION_DOT":6.162e-5,"MEAN_MOTION_DDOT":0},{"OBJECT_NAME":"COSMOS 2494 (SKRL-756 2)","OBJECT_ID":"2013-078B","EPOCH":"2026-04-04T04:45:54.423648","MEAN_MOTION":15.04428632,"ECCENTRICITY":0.00176613,"INCLINATION":82.4127,"RA_OF_ASC_NODE":323.2592,"ARG_OF_PERICENTER":96.0194,"MEAN_ANOMALY":264.3046,"EPHEMERIS_TYPE":0,"CLASSIFICATION_TYPE":"U","NORAD_CAT_ID":39491,"ELEMENT_SET_NO":999,"REV_AT_EPOCH":66768,"BSTAR":0.00042904926,"MEAN_MOTION_DOT":6.042e-5,"MEAN_MOTION_DDOT":0}]
